NORAD_CAT_ID,OBJECT_NAME,OBJECT_TYPE,EPOCH,MEAN_MOTION,ECCENTRICITY,INCLINATION,RA_OF_ASC_NODE,ARG_OF_PERICENTER,MEAN_ANOMALY,BSTAR,MEAN_MOTION_DOT,MEAN_MOTION_DDOT,TLE_LINE0,TLE_LINE1,TLE_LINE2,SEMIMAJOR_AXIS,PERIOD,APOGEE,PERIGEE,DECAYED
52541.0,STARLINK-3845,PAYLOAD,2024-05-06 02:48:40,15.08854717,0.0001217,53.2163,273.4164,80.7734,279.3396,0.00057009,8.8e-05,0.0,0 STARLINK-3845,1 52541U 22051J   24127.11713783  .00008800  00000-0  57009-3 0  9994,2 52541  53.2163 273.4164 0001217  80.7734 279.3396 15.08854717109900,6917.835,95.437,540.542,538.859,0.0
52541.0,STARLINK-3845,PAYLOAD,2024-05-06 09:10:13,15.08850952,0.0001641,53.217,272.23,83.368,276.7499,0.00051509,7.922e-05,0.0,0 STARLINK-3845,1 52541U 22051J   24127.38210090  .00007922  00000-0  51509-3 0  9999,2 52541  53.2170 272.2300 0001641  83.3680 276.7499 15.08850952109943,6917.847,95.437,540.847,538.577,0.0
52541.0,STARLINK-3845,PAYLOAD,2024-05-06 13:56:23,15.08843752,0.0002086,53.2165,271.3353,80.3881,279.7347,0.00030312,4.54e-05,0.0,0 STARLINK-3845,1 52541U 22051J   24127.58082438  .00004540  00000-0  30312-3 0  9996,2 52541  53.2165 271.3353 0002086  80.3881 279.7347 15.08843752109900,6917.869,95.437,541.177,538.291,0.0
52541.0,STARLINK-3845,PAYLOAD,2024-05-06 17:07:09,15.08843563,0.0001233,53.2172,270.7407,69.246,290.8664,0.00029407,4.396e-05,0.0,0 STARLINK-3845,1 52541U 22051J   24127.71330280  .00004396  00000-0  29407-3 0  9994,2 52541  53.2172 270.7407 0001233  69.2460 290.8664 15.08843563109998,6917.869,95.437,540.587,538.882,0.0
52541.0,STARLINK-3845,PAYLOAD,2024-05-07 09:01:00,15.08840669,0.0001261,53.2171,267.7687,63.0132,297.0989,0.00013565,1.872e-05,0.0,0 STARLINK-3845,1 52541U 22051J   24128.37570525  .00001872  00000-0  13565-3 0  9999,2 52541  53.2171 267.7687 0001261  63.0132 297.0989 15.08840669110098,6917.878,95.438,540.616,538.871,0.0
52541.0,STARLINK-3845,PAYLOAD,2024-05-07 13:47:10,15.08828246,5.99e-05,53.218,266.871,95.6199,264.4862,0.00014675,2.048e-05,0.0,0 STARLINK-3845,1 52541U 22051J   24128.57443131  .00002048  00000-0  14675-3 0  9992,2 52541  53.2180 266.8710 0000599  95.6199 264.4862 15.08828246110053,6917.916,95.438,540.196,539.367,0.0
52541.0,STARLINK-3845,PAYLOAD,2024-05-07 16:57:57,15.08832043,9.14e-05,53.2172,266.2764,96.2847,263.825,-8.9074e-05,-1.705e-05,0.0,0 STARLINK-3845,1 52541U 22051J   24128.70691043 -.00001705  00000-0 -89074-4 0  9991,2 52541  53.2172 266.2764 0000914  96.2847 263.8250 15.08832043110149,6917.905,95.438,540.402,539.137,0.0
52541.0,STARLINK-3845,PAYLOAD,2024-05-08 13:37:57,15.08843685,8.86e-05,53.2167,262.416,69.3236,290.7851,0.00027947,4.163e-05,0.0,0 STARLINK-3845,1 52541U 22051J   24129.56803010  .00004163  00000-0  27947-3 0  9994,2 52541  53.2167 262.4160 0000886  69.3236 290.7851 15.08843685110276,6917.869,95.437,540.347,539.121,0.0
52541.0,STARLINK-3845,PAYLOAD,2024-05-08 15:13:20,15.08848024,8.84e-05,53.2161,262.1164,80.1757,279.9335,0.00043282,6.609e-05,0.0,0 STARLINK-3845,1 52541U 22051J   24129.63426864  .00006609  00000-0  43282-3 0  9997,2 52541  53.2161 262.1164 0000884  80.1757 279.9335 15.08848024110210,6917.856,95.437,540.332,539.109,0.0
52541.0,STARLINK-3845,PAYLOAD,2024-05-09 02:21:02,15.08866215,8.08e-05,53.2168,260.0346,101.9383,258.17,0.00074813,0.00011647,0.0,0 STARLINK-3845,1 52541U 22051J   24130.09794062  .00011647  00000-0  74813-3 0  9999,2 52541  53.2168 260.0346 0000808 101.9383 258.1700 15.08866215110351,6917.8,95.436,540.224,539.106,0.0
52541.0,STARLINK-3845,PAYLOAD,2024-05-09 13:28:44,15.08848923,9.73e-05,53.2165,257.9532,96.7361,263.3741,0.00024503,3.615e-05,0.0,0 STARLINK-3845,1 52541U 22051J   24130.56162552  .00003615  00000-0  24503-3 0  9991,2 52541  53.2165 257.9532 0000973  96.7361 263.3741 15.08848923110427,6917.853,95.437,540.391,539.045,0.0
52541.0,STARLINK-3845,PAYLOAD,2024-05-09 15:04:07,15.08853577,9.07e-05,53.2167,257.656,95.951,264.1585,0.00054889,8.462e-05,0.0,0 STARLINK-3845,1 52541U 22051J   24130.62786497  .00008462  00000-0  54889-3 0  9993,2 52541  53.2167 257.6560 0000907  95.9510 264.1585 15.08853577110360,6917.839,95.437,540.331,539.076,0.0
52541.0,STARLINK-3845,PAYLOAD,2024-05-10 13:19:31,15.0884329,9.32e-05,53.2169,253.4936,71.9297,288.1796,0.0008768,0.00013695,0.0,0 STARLINK-3845,1 52541U 22051J   24131.55523074  .00013695  00000-0  87680-3 0  9995,2 52541  53.2169 253.4936 0000932  71.9297 288.1796 15.08843290110571,6917.87,95.437,540.38,539.091,0.0
52541.0,STARLINK-3845,PAYLOAD,2024-05-10 14:54:55,15.08840569,8.44e-05,53.217,253.1965,64.9104,295.1975,0.0016015,0.00025292,0.0,0 STARLINK-3845,1 52541U 22051J   24131.62147212  .00025292  00000-0  16015-2 0  9998,2 52541  53.2170 253.1965 0000844  64.9104 295.1975 15.08840569110510,6917.879,95.438,540.328,539.16,0.0
52541.0,STARLINK-3845,PAYLOAD,2024-05-11 13:10:16,15.08908337,0.0001845,53.2169,249.0328,89.1674,270.9529,0.00039183,5.965e-05,0.0,0 STARLINK-3845,1 52541U 22051J   24132.54880036  .00005965  00000-0  39183-3 0  9995,2 52541  53.2169 249.0328 0001845  89.1674 270.9529 15.08908337110725,6917.672,95.433,540.813,538.26,0.0
52541.0,STARLINK-3845,PAYLOAD,2024-05-11 17:56:25,15.08888966,8.38e-05,53.2165,248.1411,63.3995,296.7083,0.0002111,3.078e-05,0.0,0 STARLINK-3845,1 52541U 22051J   24132.74751622  .00003078  00000-0  21110-3 0  9999,2 52541  53.2165 248.1411 0000838  63.3995 296.7083 15.08888966110754,6917.731,95.434,540.175,539.016,0.0
52541.0,STARLINK-3845,PAYLOAD,2024-05-12 00:18:00,15.0878706,0.0003555,53.2169,246.9493,84.4974,275.6424,-0.0032452,-0.000515,0.0,0 STARLINK-3845,1 52541U 22051J   24133.01250679 -.00051500  00000-0 -32452-2 0  9991,2 52541  53.2169 246.9493 0003555  84.4974 275.6424 15.08787060110796,6918.042,95.441,542.367,537.448,0.0
52541.0,STARLINK-3845,PAYLOAD,2024-05-12 13:01:10,15.08668002,0.0001335,53.2176,244.5752,87.3317,272.7828,-0.0038106,-0.00060144,0.0,0 STARLINK-3845,1 52541U 22051J   24133.54248509 -.00060144  00000-0 -38106-2 0  9994,2 52541  53.2176 244.5752 0001335  87.3317 272.7828 15.08668002110872,6918.406,95.448,541.195,539.348,0.0
52541.0,STARLINK-3845,PAYLOAD,2024-05-12 14:36:34,15.08662923,0.0001188,53.2174,244.2785,77.5842,282.5283,-0.0033499,-0.00052953,0.0,0 STARLINK-3845,1 52541U 22051J   24133.60873356 -.00052953  00000-0 -33499-2 0  9994,2 52541  53.2174 244.2785 0001188  77.5842 282.5283 15.08662923110817,6918.422,95.449,541.109,539.465,0.0
52541.0,STARLINK-3845,PAYLOAD,2024-05-13 00:08:56,15.08705617,0.0001456,53.2161,242.4921,105.0738,255.0415,0.0018478,0.00029134,0.0,0 STARLINK-3845,1 52541U 22051J   24134.00621403  .00029134  00000-0  18478-2 0  9996,2 52541  53.2161 242.4921 0001456 105.0738 255.0415 15.08705617110948,6918.291,95.446,541.163,539.149,0.0
52541.0,STARLINK-3845,PAYLOAD,2024-05-13 11:16:38,15.08845145,0.0001785,53.2163,240.4122,49.2401,310.8746,0.002218,0.00035193,0.0,0 STARLINK-3845,1 52541U 22051J   24134.46989476  .00035193  00000-0  22180-2 0  9990,2 52541  53.2163 240.4122 0001785  49.2401 310.8746 15.08845145111019,6917.865,95.437,540.965,538.495,0.0
52541.0,STARLINK-3845,PAYLOAD,2024-05-13 16:02:47,15.0888909,0.0001776,53.2151,239.5195,88.5713,271.5482,0.00095335,0.00014937,0.0,0 STARLINK-3845,1 52541U 22051J   24134.66860549  .00014937  00000-0  95335-3 0  9997,2 52541  53.2151 239.5195 0001776  88.5713 271.5482 15.08889090111047,6917.73,95.434,540.824,538.367,0.0
52541.0,STARLINK-3845,PAYLOAD,2024-05-14 11:07:21,15.08932784,0.0001459,53.2154,235.9506,91.933,268.183,0.0014126,0.00022322,0.0,0 STARLINK-3845,1 52541U 22051J   24135.46344334  .00022322  00000-0  14126-2 0  9990,2 52541  53.2154 235.9506 0001459  91.9330 268.1830 15.08932784111168,6917.597,95.432,540.471,538.453,0.0
52541.0,STARLINK-3845,PAYLOAD,2024-05-15 06:11:55,15.08885151,0.0002441,53.2137,232.3811,101.0533,259.0734,-0.00027675,-4.696e-05,0.0,0 STARLINK-3845,1 52541U 22051J   24136.25828540 -.00004696  00000-0 -27675-3 0  9994,2 52541  53.2137 232.3811 0002441 101.0533 259.0734 15.08885151111289,6917.742,95.435,541.296,537.919,0.0
52541.0,STARLINK-3845,PAYLOAD,2024-05-15 12:33:28,15.08855624,0.0001722,53.215,231.1927,106.357,253.7612,0.0016168,0.00025548,0.0,0 STARLINK-3845,1 52541U 22051J   24136.52324299  .00025548  00000-0  16168-2 0  9997,2 52541  53.2150 231.1927 0001722 106.3570 253.7612 15.08855624111322,6917.833,95.437,540.889,538.506,0.0
52541.0,STARLINK-3845,PAYLOAD,2024-05-16 12:24:14,15.08858121,0.0001548,53.2151,226.7295,96.0872,264.0296,0.00063342,9.812e-05,0.0,0 STARLINK-3845,1 52541U 22051J   24137.51683071  .00009812  00000-0  63342-3 0  9996,2 52541  53.2151 226.7295 0001548  96.0872 264.0296 15.08858121111471,6917.825,95.436,540.761,538.619,0.0
52541.0,STARLINK-3845,PAYLOAD,2024-05-16 15:35:00,15.08865964,0.0001524,53.2159,226.1336,100.2518,259.8646,0.00082667,0.00012902,0.0,0 STARLINK-3845,1 52541U 22051J   24137.64930834  .00012902  00000-0  82667-3 0  9997,2 52541  53.2159 226.1336 0001524 100.2518 259.8646 15.08865964111427,6917.801,95.436,540.72,538.612,0.0
52541.0,STARLINK-3845,PAYLOAD,2024-05-17 12:15:01,15.08819659,0.0001528,53.2169,222.2707,108.6605,251.4553,-0.00037213,-6.202e-05,0.0,0 STARLINK-3845,1 52541U 22051J   24138.51043678 -.00006202  00000-0 -37213-3 0  9990,2 52541  53.2169 222.2707 0001528 108.6605 251.4553 15.08819659111627,6917.943,95.439,540.865,538.751,0.0
52541.0,STARLINK-3845,PAYLOAD,2024-05-18 05:44:16,15.0884846,0.0001492,53.2179,218.9978,109.1126,251.0027,0.001789,0.00028305,0.0,0 STARLINK-3845,1 52541U 22051J   24139.23908364  .00028305  00000-0  17890-2 0  9996,2 52541  53.2179 218.9978 0001492 109.1126 251.0027 15.08848460111730,6917.855,95.437,540.752,538.687,0.0
52541.0,STARLINK-3845,PAYLOAD,2024-05-18 12:05:49,15.08862517,0.0001196,53.2167,217.8137,98.6066,261.5061,0.0016416,0.00025951,0.0,0 STARLINK-3845,1 52541U 22051J   24139.50404066  .00025951  00000-0  16416-2 0  9993,2 52541  53.2167 217.8137 0001196  98.6066 261.5061 15.08862517111708,6917.812,95.436,540.504,538.849,0.0
